STARLINK-34079          
1 64038U 25102S   26063.46702775  .00004675  00000+0  39924-3 0  9997
2 64038  70.0017 127.4709 0003283 270.6836  89.3947 14.98341752 45278
STARLINK-34089          
1 64039U 25102T   26063.59239436  .00007782  00000+0  65908-3 0  9994
2 64039  70.0014 127.5058 0003083 271.8999  88.1807 14.98339231 45186
STARLINK-34117          
1 64040U 25102U   26063.51311019  .00005503  00000+0  46853-3 0  9993
2 64040  70.0034 127.6319 0002650 243.8513 116.2374 14.98339192 45112
STARLINK-34111          
1 64041U 25102V   26063.58335648  .00038691  00000+0  32335-2 0  9998
2 64041  70.0006 127.3756 0003813 272.6289 173.7753 14.98316677  5563
STARLINK-34049          
1 64042U 25102W   26063.52129444  .00006981  00000+0  59206-3 0  9992
2 64042  70.0018 127.6639 0003189 268.7810  91.2984 14.98343210 45176
STARLINK-34096          
1 64043U 25102X   26063.57134434 -.00004265  00000+0 -34981-3 0  9991
2 64043  70.0010 127.4362 0003524 267.8860  92.1896 14.98333775 45074
STARLINK-34081          
1 64044U 25102Y   26063.57970469  .00008821  00000+0  74583-3 0  9990
2 64044  70.0016 127.4653 0003355 267.4223  92.6552 14.98344334 45128
STARLINK-34033          
1 64045U 25102Z   26063.48789758  .00009443  00000+0  79774-3 0  9998
2 64045  70.0017 127.5455 0003404 269.0553  91.0216 14.98346431 45108
STARLINK-33952          
1 64046U 25102AA  26063.47954752  .00008665  00000+0  73277-3 0  9993
2 64046  70.0019 127.5154 0003513 264.4679  95.6079 14.98345066 45173
STARLINK-33961          
1 64047U 25102AB  26063.58335648  .00038006  00000+0  31766-2 0  9991
2 64047  70.0008 127.3545 0003228 274.7405 195.0787 14.98319636  5753
STARLINK-11741 [DTC]    
1 64064U 25107A   26063.23180558  .00425018  00000+0  31011-2 0  9991
2 64064  43.0002 131.6726 0002248 222.1729 137.8966 15.71208307 46439
STARLINK-11709 [DTC]    
1 64065U 25107B   26063.59207724  .00190305  00000+0  14454-2 0  9996
2 64065  43.0002 129.2035 0002250 256.2171 103.8447 15.70962202 46491
STARLINK-11737 [DTC]    
1 64066U 25107C   26063.57615096  .00201217  00000+0  15315-2 0  9992
2 64066  43.0006 129.0732 0001449 267.5253  92.5449 15.70878411 46497
STARLINK-11726 [DTC]    
1 64067U 25107D   26063.56553765  .00297357  00000+0  22350-2 0  9993
2 64067  42.9996 128.9880 0000702 328.6207  31.4619 15.70881448 46490
STARLINK-11700 [DTC]    
1 64068U 25107E   26063.60360608  .00116251  00000+0  89728-3 0  9997
2 64068  43.0016 129.2927 0001495 259.6486 100.4213 15.70828505 46496
STARLINK-11649 [DTC]    
1 64069U 25107F   26063.55504208  .00255052  00000+0  19265-2 0  9999
2 64069  43.0011 129.7979 0001122 266.9484  93.1255 15.70892870 46489
STARLINK-11713 [DTC]    
1 64070U 25107G   26063.58676530  .00166746  00000+0  12759-2 0  9994
2 64070  42.9996 129.1573 0001070 260.2044  99.8703 15.70862873 46498
STARLINK-11719 [DTC]    
1 64071U 25107H   26063.60269541  .00244703  00000+0  18578-2 0  9993
2 64071  43.0004 129.2842 0001543 254.0851 105.9847 15.70802711 46496
STARLINK-11733 [DTC]    
1 64072U 25107J   26063.57084577  .00252269  00000+0  19080-2 0  9999
2 64072  42.9994 129.0266 0000465 261.1497  98.9318 15.70868892 46494
STARLINK-11729 [DTC]    
1 64073U 25107K   26063.22649948  .00262486  00000+0  19782-2 0  9992
2 64073  43.0003 131.6266 0001261 269.4103  90.6620 15.70923610 46436
STARLINK-11730 [DTC]    
1 64074U 25107L   26063.53379870  .00175271  00000+0  13386-2 0  9990
2 64074  42.9996 129.6230 0001738 286.5883  73.4794 15.70879454 46480
STARLINK-11723 [DTC]    
1 64075U 25107M   26063.58145486  .00097862  00000+0  75706-3 0  9994
2 64075  43.0004 129.1129 0001620 292.5891  67.4805 15.70844449 46494
STARLINK-11715 [DTC]    
1 64076U 25107N   26063.30590822  .00321811  00000+0  24124-2 0  9994
2 64076  43.0001 130.4727 0000635 241.3618 118.7186 15.70870439 46451
STARLINK-34201          
1 64077U 25107P   26063.50101434  .00045020  00000+0  16327-2 0  9995
2 64077  43.0003 231.1328 0004776 287.8777  72.1554 15.27630423 44236
STARLINK-34190          
1 64078U 25107Q   26063.47531479  .00022559  00000+0  82622-3 0  9992
2 64078  42.9980 230.9369 0001088 251.3178 108.7555 15.27602223 45320
STARLINK-34168          
1 64079U 25107R   26063.45732813  .00047170  00000+0  17101-2 0  9991
2 64079  43.0016 230.8062 0004877 295.9309  64.1040 15.27621676 45328
STARLINK-34098          
1 64080U 25107S   26063.53042499  .00045288  00000+0  16439-2 0  9997
2 64080  43.0016 230.4899 0001842 272.4317  87.6324 15.27604409 45333
STARLINK-34180          
1 64081U 25107T   26063.48688089  .00022788  00000+0  83468-3 0  9990
2 64081  42.9949 231.0225 0001137 281.6313  78.4411 15.27595201 45325
STARLINK-34171          
1 64082U 25107U   26063.51885576  .00040584  00000+0  14746-2 0  9991
2 64082  43.0001 230.4022 0001847 264.6054  95.4587 15.27616666 45339
STARLINK-34126          
1 64083U 25107V   26063.49716134  .00040330  00000+0  14655-2 0  9990
2 64083  42.9984 231.1013 0001773 281.9740  78.0913 15.27616081 44237
STARLINK-34157          
1 64084U 25107W   26063.46246601  .00049804  00000+0  18057-2 0  9990
2 64084  43.0004 230.8383 0001752 259.7380 100.3274 15.27607393 45303
STARLINK-34140          
1 64085U 25107X   26063.48303277  .00045481  00000+0  16491-2 0  9993
2 64085  42.9964 230.9879 0000706 207.3219 152.7596 15.27640547 45302
STARLINK-34132          
1 64086U 25107Y   26063.49330739  .00035881  00000+0  13061-2 0  9991
2 64086  42.9956 231.0692 0000728 199.3936 160.6888 15.27605535 45297
STARLINK-34178          
1 64096U 25110A   26063.36172113  .00043938  00000+0  14864-2 0  9996
2 64096  53.1612  51.7303 0001453  69.1571 290.9585 15.30210332 45069
STARLINK-34174          
1 64097U 25110B   26063.35539157  .00040916  00000+0  13857-2 0  9995
2 64097  53.1613  51.6960 0001517  65.7685 294.3474 15.30205844 45065
STARLINK-34146          
1 64098U 25110C   26063.34905724  .00037387  00000+0  12677-2 0  9999
2 64098  53.1606  51.6554 0001326  83.9388 276.1764 15.30210623 45068
STARLINK-34074          
1 64099U 25110D   26063.23636700  .00025286  00000+0  86267-3 0  9995
2 64099  53.1606  52.3727 0001315 114.9941 245.1196 15.30209939 45048
STARLINK-34082          
1 64100U 25110E   26063.36488897  .00057074  00000+0  19240-2 0  9990
2 64100  53.1609  51.7541 0001537  74.2571 285.8599 15.30205764 45066
STARLINK-34072          
1 64101U 25110F   26063.35855583  .00054728  00000+0  18458-2 0  9993
2 64101  53.1608  51.7157 0001233  86.1589 273.9553 15.30209378 45066
STARLINK-34104          
1 64102U 25110G   26063.28690925  .00028726  00000+0  97814-3 0  9996
2 64102  53.1612  51.9776 0001228  89.2295 270.8847 15.30203462 45052
STARLINK-34179          
1 64103U 25110H   26063.37016023  .00043958  00000+0  14877-2 0  9999
2 64103  53.1606  51.7862 0001253  81.0912 279.0231 15.30196804 45064
STARLINK-34176          
1 64104U 25110J   26063.36383209  .00053534  00000+0  18062-2 0  9993
2 64104  53.1611  51.7456 0001352  76.1497 283.9654 15.30207035 45065
STARLINK-33949          
1 64105U 25110K   26063.36066600  .00043925  00000+0  14860-2 0  9992
2 64105  53.1607  51.7267 0001356  70.4524 289.6624 15.30209436 45060
STARLINK-33970          
1 64106U 25110L   26063.28585489  .00024444  00000+0  83465-3 0  9998
2 64106  53.1614  51.9725 0001755  66.8365 293.2821 15.30201616 45056
STARLINK-33912          
1 64107U 25110M   26063.34694522  .00037901  00000+0  12852-2 0  9998
2 64107  53.1607  51.6390 0001359  78.2122 281.9031 15.30202789 45062
STARLINK-34156          
1 64108U 25110N   26063.33744885  .00019195  00000+0  65865-3 0  9994
2 64108  53.1596  51.5759 0001167  89.7033 270.4101 15.30193340 45066
STARLINK-34124          
1 64109U 25110P   26063.34378003  .00035294  00000+0  11978-2 0  9994
2 64109  53.1602  51.6170 0001260  82.9090 277.2054 15.30208639 45065
STARLINK-34145          
1 64110U 25110Q   26063.35433532  .00044255  00000+0  14970-2 0  9998
2 64110  53.1616  51.6847 0001569  60.4729 299.6428 15.30209343 45061
STARLINK-34148          
1 64111U 25110R   26063.39959828  .00040083  00000+0  13576-2 0  9990
2 64111  53.1593  51.2538 0001772  47.3766 312.7384 15.30213843 45079
STARLINK-34136          
1 64112U 25110S   26063.34061374  .00036694  00000+0  12447-2 0  9995
2 64112  53.1598  51.5980 0001152  89.4558 270.6574 15.30206234 45065
STARLINK-33839          
1 64113U 25110T   26063.39328195  .00050557  00000+0  17063-2 0  9991
2 64113  53.1600  51.2105 0001803 113.3282 246.7909 15.30222861 45071
STARLINK-34064          
1 64114U 25110U   26063.28268583  .00038817  00000+0  13154-2 0  9996
2 64114  53.1607  51.9478 0001281  88.1171 271.9976 15.30211013 45054
STARLINK-34067          
1 64115U 25110V   26063.38693321  .00032980  00000+0  11206-2 0  9991
2 64115  53.1586  51.1730 0001487  98.2774 261.8395 15.30204506 45077
STARLINK-34080          
1 64116U 25110W   26063.25946982  .00045204  00000+0  15284-2 0  9995
2 64116  53.1589  51.7992 0001251  86.9203 273.1941 15.30214738 45045
STARLINK-34122          
1 64117U 25110X   26063.38376661  .00048225  00000+0  16290-2 0  9995
2 64117  53.1582  51.1522 0001349  91.3062 268.8093 15.30216440 45077
STARLINK-33964          
1 64118U 25110Y   26063.33111732  .00035598  00000+0  12083-2 0  9992
2 64118  53.1595  51.5341 0001237  89.4292 270.6850 15.30199651 45069
STARLINK-34160          
1 64119U 25110Z   26063.18465521  .00041365  00000+0  13997-2 0  9998
2 64119  53.1583  52.0412 0001537 125.4051 234.7093 15.30230798 45045
STARLINK-34151          
1 64120U 25110AA  26063.37121596  .00056568  00000+0  19051-2 0  9990
2 64120  53.1602  51.7819 0002067  81.2490 278.8745 15.30240264 45065
STARLINK-34189          
1 64121U 25110AB  26063.36805019  .00038589  00000+0  13078-2 0  9995
2 64121  53.1608  51.7646 0001288  83.6177 276.4971 15.30212139 45067
